[{"OBJECT_NAME":"HAWK-5C","OBJECT_ID":"2022-057Y","EPOCH":"2026-03-09T22:02:16.006848","MEAN_MOTION":15.47549257,"ECCENTRICITY":0.00056146,"INCLINATION":97.6455,"RA_OF_ASC_NODE":222.5613,"ARG_OF_PERICENTER":75.7215,"MEAN_ANOMALY":284.4658,"EPHEMERIS_TYPE":0,"CLASSIFICATION_TYPE":"U","NORAD_CAT_ID":52754,"ELEMENT_SET_NO":999,"REV_AT_EPOCH":21097,"BSTAR":0.00045712599,"MEAN_MOTION_DOT":0.00023473,"MEAN_MOTION_DDOT":0},{"OBJECT_NAME":"JILIN-1 GAOFEN 03D53","OBJECT_ID":"2022-155C","EPOCH":"2026-03-09T21:59:34.489824","MEAN_MOTION":15.46744133,"ECCENTRICITY":0.00055317,"INCLINATION":97.6077,"RA_OF_ASC_NODE":203.8168,"ARG_OF_PERICENTER":17.7738,"MEAN_ANOMALY":342.3704,"EPHEMERIS_TYPE":0,"CLASSIFICATION_TYPE":"U","NORAD_CAT_ID":54253,"ELEMENT_SET_NO":999,"REV_AT_EPOCH":18411,"BSTAR":0.00074680835,"MEAN_MOTION_DOT":0.00037423,"MEAN_MOTION_DDOT":0}]
